{
  "type": "FeatureCollection",
  "features": [
    {
      "type": "Feature",
      "properties": {
        "norad_id": 37846,
        "name": "GSAT0101 (GALILEO-PFM)",
        "group": "gnss",
        "lat": -55.659379889667996,
        "lon": -84.8948655386904,
        "alt_km": 23220.627818652767,
        "timestamp": "2025-12-13T22:39:29.950883+00:00",
        "meta_object_name": "GSAT0101 (GALILEO-PFM)",
        "meta_object_id": "2011-060A",
        "meta_epoch": "2025-12-12T21:37:17.093856",
        "meta_mean_motion": 1.70475751,
        "meta_eccentricity": 0.00030259,
        "meta_inclination": 57.0527,
        "meta_ra_of_asc_node": 346.8154,
        "meta_arg_of_pericenter": 315.3436,
        "meta_mean_anomaly": 44.6506,
        "meta_ephemeris_type": 0,
        "meta_classification_type": "U",
        "meta_norad_cat_id": 37846,
        "meta_element_set_no": 999,
        "meta_rev_at_epoch": 8794,
        "meta_bstar": 0,
        "meta_mean_motion_dot": -8.7e-07,
        "meta_mean_motion_ddot": 0,
        "tle_line1": "1 37846U 11060A   25346.90089229 -.00000087  00000+0  00000+0 0  9999",
        "tle_line2": "2 37846  57.0527 346.8154 0003025 315.3436  44.6506  1.70475751 87942"
      },
      "geometry": {
        "type": "Point",
        "coordinates": [
          -84.8948655386904,
          -55.659379889667996
        ]
      }
    },
    {
      "type": "Feature",
      "properties": {
        "norad_id": 37847,
        "name": "GSAT0102 (GALILEO-FM2)",
        "group": "gnss",
        "lat": -28.216638509201772,
        "lon": -33.577507792103404,
        "alt_km": 23211.50039989655,
        "timestamp": "2025-12-13T22:39:29.950895+00:00",
        "meta_object_name": "GSAT0102 (GALILEO-FM2)",
        "meta_object_id": "2011-060B",
        "meta_epoch": "2025-12-12T05:47:25.345248",
        "meta_mean_motion": 1.70475905,
        "meta_eccentricity": 0.00049802,
        "meta_inclination": 57.0536,
        "meta_ra_of_asc_node": 346.8337,
        "meta_arg_of_pericenter": 309.4177,
        "meta_mean_anomaly": 51.2149,
        "meta_ephemeris_type": 0,
        "meta_classification_type": "U",
        "meta_norad_cat_id": 37847,
        "meta_element_set_no": 999,
        "meta_rev_at_epoch": 8794,
        "meta_bstar": 0,
        "meta_mean_motion_dot": -8.7e-07,
        "meta_mean_motion_ddot": 0,
        "tle_line1": "1 37847U 11060B   25346.24126557 -.00000087  00000+0  00000+0 0  9993",
        "tle_line2": "2 37847  57.0536 346.8337 0004980 309.4177  51.2149  1.70475905 87941"
      },
      "geometry": {
        "type": "Point",
        "coordinates": [
          -33.577507792103404,
          -28.216638509201772
        ]
      }
    },
    {
      "type": "Feature",
      "properties": {
        "norad_id": 37867,
        "name": "COSMOS 2476 (744)",
        "group": "gnss",
        "lat": -59.566345558635255,
        "lon": -48.94313900040717,
        "alt_km": 19078.40091476019,
        "timestamp": "2025-12-13T22:39:29.950907+00:00",
        "meta_object_name": "COSMOS 2476 (744)",
        "meta_object_id": "2011-064A",
        "meta_epoch": "2025-12-10T19:30:14.482368",
        "meta_mean_motion": 2.13101258,
        "meta_eccentricity": 0.00238922,
        "meta_inclination": 65.1614,
        "meta_ra_of_asc_node": 79.2364,
        "meta_arg_of_pericenter": 233.6597,
        "meta_mean_anomaly": 135.7131,
        "meta_ephemeris_type": 0,
        "meta_classification_type": "U",
        "meta_norad_cat_id": 37867,
        "meta_element_set_no": 999,
        "meta_rev_at_epoch": 10975,
        "meta_bstar": 0,
        "meta_mean_motion_dot": -2.4e-07,
        "meta_mean_motion_ddot": 0,
        "tle_line1": "1 37867U 11064A   25344.81266762 -.00000024  00000+0  00000+0 0  9994",
        "tle_line2": "2 37867  65.1614  79.2364 0023892 233.6597 135.7131  2.13101258109752"
      },
      "geometry": {
        "type": "Point",
        "coordinates": [
          -48.94313900040717,
          -59.566345558635255
        ]
      }
    },
    {
      "type": "Feature",
      "properties": {
        "norad_id": 37868,
        "name": "COSMOS 2477 (745)",
        "group": "gnss",
        "lat": 59.99106915985842,
        "lon": 132.38664292494292,
        "alt_km": 19174.52513899434,
        "timestamp": "2025-12-13T22:39:29.950919+00:00",
        "meta_object_name": "COSMOS 2477 (745)",
        "meta_object_id": "2011-064B",
        "meta_epoch": "2025-12-12T21:57:38.702592",
        "meta_mean_motion": 2.13102761,
        "meta_eccentricity": 0.00211332,
        "meta_inclination": 65.1692,
        "meta_ra_of_asc_node": 79.2429,
        "meta_arg_of_pericenter": 234.633,
        "meta_mean_anomaly": 128.5252,
        "meta_ephemeris_type": 0,
        "meta_classification_type": "U",
        "meta_norad_cat_id": 37868,
        "meta_element_set_no": 999,
        "meta_rev_at_epoch": 10979,
        "meta_bstar": 0,
        "meta_mean_motion_dot": -4.4e-07,
        "meta_mean_motion_ddot": 0,
        "tle_line1": "1 37868U 11064B   25346.91503128 -.00000044  00000+0  00000+0 0  9990",
        "tle_line2": "2 37868  65.1692  79.2429 0021133 234.6330 128.5252  2.13102761109791"
      },
      "geometry": {
        "type": "Point",
        "coordinates": [
          132.38664292494292,
          59.99106915985842
        ]
      }
    },
    {
      "type": "Feature",
      "properties": {
        "norad_id": 37869,
        "name": "COSMOS 2475 (743)",
        "group": "gnss",
        "lat": 25.881191632534733,
        "lon": 92.1901222195813,
        "alt_km": 19178.403382525183,
        "timestamp": "2025-12-13T22:39:29.950931+00:00",
        "meta_object_name": "COSMOS 2475 (743)",
        "meta_object_id": "2011-064C",
        "meta_epoch": "2025-12-09T06:02:05.700768",
        "meta_mean_motion": 2.13101306,
        "meta_eccentricity": 0.0026081,
        "meta_inclination": 65.1742,
        "meta_ra_of_asc_node": 79.3871,
        "meta_arg_of_pericenter": 248.2695,
        "meta_mean_anomaly": 140.2782,
        "meta_ephemeris_type": 0,
        "meta_classification_type": "U",
        "meta_norad_cat_id": 37869,
        "meta_element_set_no": 999,
        "meta_rev_at_epoch": 10972,
        "meta_bstar": 0,
        "meta_mean_motion_dot": -1.3e-07,
        "meta_mean_motion_ddot": 0,
        "tle_line1": "1 37869U 11064C   25343.25145487 -.00000013  00000+0  00000+0 0  9991",
        "tle_line2": "2 37869  65.1742  79.3871 0026081 248.2695 140.2782  2.13101306109728"
      },
      "geometry": {
        "type": "Point",
        "coordinates": [
          92.1901222195813,
          25.881191632534733
        ]
      }
    },
    {
      "type": "Feature",
      "properties": {
        "norad_id": 37948,
        "name": "BEIDOU-2 IGSO-5 (C10)",
        "group": "gnss",
        "lat": -41.236066268985695,
        "lon": 145.79270110820374,
        "alt_km": 35350.33382748725,
        "timestamp": "2025-12-13T22:39:29.950954+00:00",
        "meta_object_name": "BEIDOU-2 IGSO-5 (C10)",
        "meta_object_id": "2011-073A",
        "meta_epoch": "2025-12-12T18:24:47.608416",
        "meta_mean_motion": 1.00291151,
        "meta_eccentricity": 0.01101752,
        "meta_inclination": 48.0199,
        "meta_ra_of_asc_node": 273.857,
        "meta_arg_of_pericenter": 222.308,
        "meta_mean_anomaly": 314.7254,
        "meta_ephemeris_type": 0,
        "meta_classification_type": "U",
        "meta_norad_cat_id": 37948,
        "meta_element_set_no": 999,
        "meta_rev_at_epoch": 5126,
        "meta_bstar": 0,
        "meta_mean_motion_dot": -2.21e-06,
        "meta_mean_motion_ddot": 0,
        "tle_line1": "1 37948U 11073A   25346.76721769 -.00000221  00000+0  00000+0 0  9992",
        "tle_line2": "2 37948  48.0199 273.8570 0110175 222.3080 314.7254  1.00291151 51268"
      },
      "geometry": {
        "type": "Point",
        "coordinates": [
          145.79270110820374,
          -41.236066268985695
        ]
      }
    },
    {
      "type": "Feature",
      "properties": {
        "norad_id": 37951,
        "name": "LUCH 5A (SDCM/PRN 140)",
        "group": "gnss",
        "lat": 3.7033328176013924,
        "lon": -129.96115814739835,
        "alt_km": 35763.967481982145,
        "timestamp": "2025-12-13T22:39:29.950967+00:00",
        "meta_object_name": "LUCH 5A (SDCM/PRN 140)",
        "meta_object_id": "2011-074B",
        "meta_epoch": "2025-12-12T13:06:30.629376",
        "meta_mean_motion": 1.00274985,
        "meta_eccentricity": 0.00055326,
        "meta_inclination": 8.2797,
        "meta_ra_of_asc_node": 76.5885,
        "meta_arg_of_pericenter": 180.9843,
        "meta_mean_anomaly": 187.6109,
        "meta_ephemeris_type": 0,
        "meta_classification_type": "U",
        "meta_norad_cat_id": 37951,
        "meta_element_set_no": 999,
        "meta_rev_at_epoch": 5118,
        "meta_bstar": 0,
        "meta_mean_motion_dot": -3.9e-07,
        "meta_mean_motion_ddot": 0,
        "tle_line1": "1 37951U 11074B   25346.54618784 -.00000039  00000+0  00000+0 0  9992",
        "tle_line2": "2 37951   8.2797  76.5885 0005532 180.9843 187.6109  1.00274985 51180"
      },
      "geometry": {
        "type": "Point",
        "coordinates": [
          -129.96115814739835,
          3.7033328176013924
        ]
      }
    }
  ]
}